[{"OBJECT_NAME":"AL MUNTHER","OBJECT_ID":"2025-052AG","EPOCH":"2026-03-09T15:29:23.207136","MEAN_MOTION":15.28381521,"ECCENTRICITY":0.0008027,"INCLINATION":97.4001,"RA_OF_ASC_NODE":323.9152,"ARG_OF_PERICENTER":130.7043,"MEAN_ANOMALY":229.4895,"EPHEMERIS_TYPE":0,"CLASSIFICATION_TYPE":"U","NORAD_CAT_ID":63240,"ELEMENT_SET_NO":999,"REV_AT_EPOCH":5479,"BSTAR":0.00065015,"MEAN_MOTION_DOT":0.00017933,"MEAN_MOTION_DDOT":0},{"OBJECT_NAME":"STARLINK-35675","OBJECT_ID":"2025-303AB","EPOCH":"2026-03-09T01:25:30.854496","MEAN_MOTION":15.27571478,"ECCENTRICITY":0.00016039,"INCLINATION":42.9996,"RA_OF_ASC_NODE":314.7172,"ARG_OF_PERICENTER":272.1324,"MEAN_ANOMALY":87.9344,"EPHEMERIS_TYPE":0,"CLASSIFICATION_TYPE":"U","NORAD_CAT_ID":67188,"ELEMENT_SET_NO":999,"REV_AT_EPOCH":1263,"BSTAR":0.00098100462,"MEAN_MOTION_DOT":0.00026824,"MEAN_MOTION_DDOT":0}]
